NORAD_CAT_ID,OBJECT_NAME,OBJECT_TYPE,EPOCH,MEAN_MOTION,ECCENTRICITY,INCLINATION,RA_OF_ASC_NODE,ARG_OF_PERICENTER,MEAN_ANOMALY,BSTAR,MEAN_MOTION_DOT,MEAN_MOTION_DDOT,TLE_LINE0,TLE_LINE1,TLE_LINE2,SEMIMAJOR_AXIS,PERIOD,APOGEE,PERIGEE,DECAYED
52699.0,STARLINK-3987,PAYLOAD,2022-10-08 09:48:24,15.08818048,0.0002208,53.216,342.8697,35.0904,325.0234,0.00019003,2.736e-05,0.0,0 STARLINK-3987,1 52699U 22053AV  22281.40861413  .00002736  00000-0  19003-3 0  9999,2 52699  53.2160 342.8697 0002208  35.0904 325.0234 15.08818048 22367,6917.946999999999,95.439,541.34,538.285,0.0
52699.0,STARLINK-3987,PAYLOAD,2022-10-08 11:23:47,15.08816749,0.0002227,53.2163,342.5728,35.7791,324.335,0.0002098,3.05e-05,0.0,0 STARLINK-3987,1 52699U 22053AV  22281.47485545  .00003050  00000-0  20980-3 0  9990,2 52699  53.2163 342.5728 0002227  35.7791 324.3350 15.08816749 22800,6917.951,95.439,541.357,538.276,0.0
52699.0,STARLINK-3987,PAYLOAD,2022-10-08 22:31:29,15.088333300000002,0.0002092,53.2165,340.4892,30.4671,329.6442,-3.1197e-05,-7.85e-06,0.0,0 STARLINK-3987,1 52699U 22053AV  22281.93853540 -.00000785  00000-0 -31197-4 0  9992,2 52699  53.2165 340.4892 0002092  30.4671 329.6442 15.08833330 22445,6917.901,95.438,541.2130000000002,538.319,0.0
52699.0,STARLINK-3987,PAYLOAD,2022-10-09 11:14:33,15.08847008,0.0002601,53.2158,338.1116,30.1277,329.9865,-1.1869e-06,-3.07e-06,0.0,0 STARLINK-3987,1 52699U 22053AV  22282.46844527 -.00000307  00000-0 -11869-5 0  9991,2 52699  53.2158 338.1116 0002601  30.1277 329.9865 15.08847008 22523,6917.859,95.437,541.523,537.925,0.0
52699.0,STARLINK-3987,PAYLOAD,2022-10-09 20:46:52,15.08838321,0.0002262,53.2165,336.3281,37.4617,322.6532,2.7768e-05,1.54e-06,0.0,0 STARLINK-3987,1 52699U 22053AV  22282.86588912  .00000154  00000-0  27768-4 0  9990,2 52699  53.2165 336.3281 0002262  37.4617 322.6532 15.08838321 23019,6917.886,95.438,541.315,538.186,0.0
52699.0,STARLINK-3987,PAYLOAD,2022-10-10 03:08:25,15.08836521,0.0002218,53.2163,335.1380000000001,34.6049,325.5087,6.2167e-05,7.01e-06,0.0,0 STARLINK-3987,1 52699U 22053AV  22283.13084803  .00000701  00000-0  62167-4 0  9991,2 52699  53.2163 335.1380 0002218  34.6049 325.5087 15.08836521 22626,6917.891,95.438,541.29,538.222,0.0
52699.0,STARLINK-3987,PAYLOAD,2022-10-10 11:05:20,15.08838936,0.0002320999999999,53.2157,333.6505,34.5291,325.5852,8.640299999999999e-05,1.087e-05,0.0,0 STARLINK-3987,1 52699U 22053AV  22283.46204697  .00001087  00000-0  86403-4 0  9999,2 52699  53.2157 333.6505 0002321  34.5291 325.5852 15.08838936 23100,6917.884,95.438,541.354,538.143,0.0
52699.0,STARLINK-3987,PAYLOAD,2022-10-10 20:37:39,15.08842098,0.0002244,53.2156,331.8664,38.9091,321.2062,1.411e-05,-6.4e-07,0.0,0 STARLINK-3987,1 52699U 22053AV  22283.85948714 -.00000064  00000-0  14110-4 0  9998,2 52699  53.2156 331.8664 0002244  38.9091 321.2062 15.08842098 23161,6917.874,95.437,541.2909999999998,538.187,0.0
52699.0,STARLINK-3987,PAYLOAD,2022-10-11 12:31:32,15.08829178,0.0002311999999999,53.2164,328.8928,32.2337,327.8796,-7.4897e-05,-1.4800000000000002e-05,0.0,0 STARLINK-3987,1 52699U 22053AV  22284.52189849 -.00001480  00000-0 -74897-4 0  9991,2 52699  53.2164 328.8928 0002312  32.2337 327.8796 15.08829178 22838,6917.913000000001,95.438,541.378,538.179,0.0
52699.0,STARLINK-3987,PAYLOAD,2022-10-12 09:11:32,15.08830901,0.0002586,53.2157,325.0279,29.3969,330.7168,-2.1951e-05,-6.38e-06,0.0,0 STARLINK-3987,1 52699U 22053AV  22285.38301920 -.00000638  00000-0 -21951-4 0  9999,2 52699  53.2157 325.0279 0002586  29.3969 330.7168 15.08830901 23393,6917.908,95.438,541.562,537.984,0.0
52699.0,STARLINK-3987,PAYLOAD,2022-10-13 12:13:05,15.08847867,0.0002340999999999,53.2154,319.9703,31.3327,328.7804,-2.0517e-05,-6.15e-06,0.0,0 STARLINK-3987,1 52699U 22053AV  22286.50908916 -.00000615  00000-0 -20517-4 0  9994,2 52699  53.2154 319.9703 0002341  31.3327 328.7804 15.08847867 23139,6917.856,95.437,541.341,538.102,0.0
52699.0,STARLINK-3987,PAYLOAD,2022-10-14 08:53:06,15.08833692,0.0002379,53.2157,316.1044,29.8952,330.2175,5.6529e-05,6.11e-06,0.0,0 STARLINK-3987,1 52699U 22053AV  22287.37021496  .00000611  00000-0  56529-4 0  9995,2 52699  53.2157 316.1044 0002379  29.8952 330.2175 15.08833692 23697,6917.9,95.438,541.41,538.119,0.0
52699.0,STARLINK-3987,PAYLOAD,2022-10-14 18:25:24,15.08842756,0.0002405,53.2157,314.3203,28.9135,331.199,7.1153e-05,8.44e-06,0.0,0 STARLINK-3987,1 52699U 22053AV  22287.76764887  .00000844  00000-0  71153-4 0  9994,2 52699  53.2157 314.3203 0002405  28.9135 331.1990 15.08842756 23323,6917.871999999999,95.437,541.401,538.073,0.0
52699.0,STARLINK-3987,PAYLOAD,2022-10-15 08:43:52,15.08846527,0.0002441999999999,53.2152,311.6434,29.3902,330.7227,5.4973e-05,5.87e-06,0.0,0 STARLINK-3987,1 52699U 22053AV  22288.36380399  .00000587  00000-0  54973-4 0  9998,2 52699  53.2152 311.6434 0002442  29.3902 330.7227 15.08846527 23847,6917.86,95.437,541.415,538.036,0.0
52699.0,STARLINK-3987,PAYLOAD,2022-10-16 02:13:08,15.08828158,0.0002384,53.2143,308.3716,28.1977,331.9143,-3.0381e-05,-7.72e-06,0.0,0 STARLINK-3987,1 52699U 22053AV  22289.09245694 -.00000772  00000-0 -30381-4 0  9992,2 52699  53.2143 308.3716 0002384  28.1977 331.9143 15.08828158 23522,6917.917,95.438,541.431,538.132,0.0
52699.0,STARLINK-3987,PAYLOAD,2022-10-16 08:34:41,15.08821444,0.0002477,53.2156,307.1837,32.8819,327.2327,-8.131e-05,-1.582e-05,0.0,0 STARLINK-3987,1 52699U 22053AV  22289.35742555 -.00001582  00000-0 -81310-4 0  9997,2 52699  53.2156 307.1837 0002477  32.8819 327.2327 15.08821444 23991,6917.937,95.439,541.516,538.089,0.0
52699.0,STARLINK-3987,PAYLOAD,2022-10-17 10:00:52,15.08824488,0.0002484999999999,53.2154,302.4240000000001,37.7073,322.4093,-8.809999999999999e-05,-1.6899999999999994e-05,0.0,0 STARLINK-3987,1 52699U 22053AV  22290.41727244 -.00001690  00000-0 -88100-4 0  9998,2 52699  53.2154 302.4240 0002485  37.7073 322.4093 15.08824488 23729,6917.928000000001,95.439,541.512,538.0740000000002,0.0
52699.0,STARLINK-3987,PAYLOAD,2022-10-18 08:16:15,15.08832215,0.0002418,53.2148,298.2621,29.9278,330.1852,0.000176,2.513e-05,0.0,0 STARLINK-3987,1 52699U 22053AV  22291.34462243  .00002513  00000-0  17600-3 0  9995,2 52699  53.2148 298.2621 0002418  29.9278 330.1852 15.08832215 23864,6917.904,95.438,541.442,538.096,0.0
52699.0,STARLINK-3987,PAYLOAD,2022-10-18 09:51:38,15.08830409,0.0002519,53.2152,297.965,30.2945,329.8192,0.00015936,2.248e-05,0.0,0 STARLINK-3987,1 52699U 22053AV  22291.41086499  .00002248  00000-0  15936-3 0  9993,2 52699  53.2152 297.9650 0002519  30.2945 329.8192 15.08830409 24300,6917.91,95.438,541.5169999999998,538.0319999999998,0.0
52699.0,STARLINK-3987,PAYLOAD,2022-10-18 17:48:34,15.08833475,0.0002395,53.2149,296.4787,27.139,332.9726,0.0001453999999999,2.026e-05,0.0,0 STARLINK-3987,1 52699U 22053AV  22291.74206338  .00002026  00000-0  14540-3 0  9999,2 52699  53.2149 296.4787 0002395  27.1390 332.9726 15.08833475 24351,6917.9,95.438,541.422,538.1080000000002,0.0
52699.0,STARLINK-3987,PAYLOAD,2022-10-19 09:42:25,15.08841586,0.0002405,53.2148,293.5041,30.8373,329.276,-3.0301e-05,-7.71e-06,0.0,0 STARLINK-3987,1 52699U 22053AV  22292.40446707 -.00000771  00000-0 -30301-4 0  9990,2 52699  53.2148 293.5041 0002405  30.8373 329.2760 15.08841586 24455,6917.876,95.437,541.404,538.077,0.0
52699.0,STARLINK-3987,PAYLOAD,2022-10-20 04:47:02,15.08849275,0.0002437,53.2151,289.9354,32.1672,327.9468,7.178e-05,8.54e-06,0.0,0 STARLINK-3987,1 52699U 22053AV  22293.19933483  .00000854  00000-0  71780-4 0  9995,2 52699  53.2151 289.9354 0002437  32.1672 327.9468 15.08849275 24146,6917.852,95.437,541.403,538.031,0.0
52699.0,STARLINK-3987,PAYLOAD,2022-10-20 09:33:12,15.08846389,0.0002726,53.2166,289.0438,26.3428,333.7702,2.1561e-05,5.5e-07,0.0,0 STARLINK-3987,1 52699U 22053AV  22293.39805820  .00000055  00000-0  21561-4 0  9995,2 52699  53.2166 289.0438 0002726  26.3428 333.7702 15.08846389 24601,6917.861,95.437,541.612,537.84,0.0
52699.0,STARLINK-3987,PAYLOAD,2022-10-21 03:02:27,15.08836968,0.000246,53.2169,285.7719,27.7426,332.3697,7.9032e-06,-1.63e-06,0.0,0 STARLINK-3987,1 52699U 22053AV  22294.12670217 -.00000163  00000-0  79032-5 0  9995,2 52699  53.2169 285.7719 0002460  27.7426 332.3697 15.08836968 24281,6917.89,95.438,541.456,538.053,0.0
52699.0,STARLINK-3987,PAYLOAD,2022-10-21 09:23:59,15.0883851,0.0002529999999999,53.216,284.5824,29.8554,330.2582,2.494e-06,-2.49e-06,0.0,0 STARLINK-3987,1 52699U 22053AV  22294.39166155 -.00000249  00000-0  24940-5 0  9998,2 52699  53.2160 284.5824 0002530  29.8554 330.2582 15.08838510 24756,6917.885,95.438,541.5,538.0,0.0
52699.0,STARLINK-3987,PAYLOAD,2022-10-22 02:53:13,15.08846175,0.000248,53.2158,281.3118,33.9608,326.1543,-2.8053e-05,-7.35e-06,0.0,0 STARLINK-3987,1 52699U 22053AV  22295.12029612 -.00000735  00000-0 -28053-4 0  9995,2 52699  53.2158 281.3118 0002480  33.9608 326.1543 15.08846175 24436,6917.861999999999,95.437,541.442,538.011,0.0
52699.0,STARLINK-3987,PAYLOAD,2022-10-22 09:14:46,15.08840935,0.0002608,53.2154,280.1217,28.7633,331.3502,-6.127300000000001e-05,-1.264e-05,0.0,0 STARLINK-3987,1 52699U 22053AV  22295.38525983 -.00001264  00000-0 -61273-4 0  9994,2 52699  53.2154 280.1217 0002608  28.7633 331.3502 15.08840935 24904,6917.878000000002,95.437,541.547,537.938,0.0
52699.0,STARLINK-3987,PAYLOAD,2022-10-22 15:36:18,15.08840514,0.0002571,53.2149,278.933,28.6881,331.4252,4.1012e-05,3.64e-06,0.0,0 STARLINK-3987,1 52699U 22053AV  22295.65021634  .00000364  00000-0  41012-4 0  9995,2 52699  53.2149 278.9330 0002571  28.6881 331.4252 15.08840514 24942,6917.879,95.438,541.5219999999998,537.965,0.0
52699.0,STARLINK-3987,PAYLOAD,2022-10-23 02:44:00,15.08837573,0.0002398,53.2156,276.8505,32.5963,327.5177,4.5331e-05,4.33e-06,0.0,0 STARLINK-3987,1 52699U 22053AV  22296.11389674  .00000433  00000-0  45331-4 0  9993,2 52699  53.2156 276.8505 0002398  32.5963 327.5177 15.08837573 24586,6917.888000000001,95.438,541.4119999999998,538.094,0.0
